CUBEBUG-2 (LO-74)       
1 39440U 13066AA  26195.86030594  .00001977  00000+0  18584-3 0  9996
2 39440  97.8912 144.9614 0055738 296.4824  63.0685 14.93965331681120
FUNCUBE-1 (AO-73)       
1 39444U 13066AE  26195.96127916  .00003446  00000+0  21388-3 0  9995
2 39444  97.8287 167.9955 0038012 108.4306 252.1060 15.09815956683850
UWE-3                   
1 39446U 13066AG  26195.81898914  .00001907  00000+0  16664-3 0  9995
2 39446  97.8706 152.0848 0047493 225.7627 133.9691 14.97197060681710
UNISAT-6                
1 40012U 14033C   26195.96706613  .00001119  00000+0  12477-3 0  9994
2 40012  97.7908 348.1967 0044200 338.5337  21.4025 14.88365994650292
DUCHIFAT-1              
1 40021U 14033M   26196.10651525  .00095423  00000+0  75655-3 0  9990
2 40021  98.0418 259.3300 0002760 247.0602 113.0368 15.70998070660120
QB50P1                  
1 40025U 14033R   26196.02456279  .00004194  00000+0  20589-3 0  9995
2 40025  98.0961 209.1307 0010342 125.0782 235.1421 15.18664864657255
LILACSAT-2              
1 40908U 15049K   26196.19164642  .00011703  00000+0  19341-3 0  9999
2 40908  97.4623 234.1104 0008423 141.4645 218.7210 15.52359683600094
FOX-1A (AO-85)          
1 40967U 15058D   26196.12035816  .00001645  00000+0  15548-3 0  9996
2 40967  64.7725 192.1668 0132354  45.8405 315.3496 14.91088023117732
CAS-2T & KS-1Q          
1 41847U 16066G   26196.15118056  .00000530  00000+0  82619-4 0  9991
2 41847  98.3814 271.5674 0342241  44.8948 317.9386 14.44770276508837
RADFXSAT (FOX-1B)       
1 43017U 17073E   26196.11905356  .00004352  00000+0  19110-3 0  9995
2 43017  97.4665  62.7648 0148264 231.7533 127.0280 15.13059975469617
DIWATA-2B               
1 43678U 18084H   26196.17762021  .00001177  00000+0  98333-4 0  9994
2 43678  98.1212  33.6116 0012835  84.3828 275.8858 15.00563346420412
ES'HAIL 2               
1 43700U 18090A   26196.13447458  .00000135  00000+0  00000+0 0  9999
2 43700   0.0176  41.8438 0002198 117.2896 208.0388  1.00270847 27953
FOX-1CLIFF (AO-95)      
1 43770U 18099N   26196.12445781  .00006428  00000+0  24321-3 0  9998
2 43770  97.4371 256.2762 0007249 240.1261 119.9258 15.27272459417485
ITASAT                  
1 43786U 18099AE  26196.14602740  .00003624  00000+0  17427-3 0  9991
2 43786  97.4013 247.1033 0010869 250.6070 109.3990 15.19381680417159
JY1SAT (JO-97)          
1 43803U 18099AX  26196.14339606  .00009957  00000+0  29989-3 0  9990
2 43803  97.4123 259.0882 0006912 158.3405 201.8132 15.34518700417917
UWE-4                   
1 43880U 18111E   26195.77048968  .00021018  00000+0  40605-3 0  9996
2 43880  97.5848 125.4664 0006091 196.0954 164.0103 15.47799907415041
TIANYAN 01              
1 44881U 19093C   26196.18098367  .00000273  00000+0  36763-4 0  9993
2 44881  97.7529 267.7293 0013585   1.8085 358.3178 14.86561337355570
RS-44 & BREEZE-KM R/B   
1 44909U 19096E   26195.83749079 -.00000001  00000+0 -55241-4 0  9994
2 44909  82.5241 321.3319 0218535  79.8236 282.7434 12.79748927305881
SALSAT                  
1 46495U 20068K   26196.00653126  .00004157  00000+0  14518-3 0  9999
2 46495  97.8854 200.7735 0009152 193.6321 166.4672 15.30170520319613
XW-3 (CAS-9)            
1 50466U 21131B   26196.23854498  .00000251  00000+0  91226-4 0  9997
2 50466  98.4995 288.4767 0004563  30.3901 329.7552 14.41381778239150
GREENCUBE (IO-117)      
1 53109U 22080E   26196.19885267 -.00000003  00000+0  00000+0 0  9992
2 53109  70.1411 288.5050 0009069 283.3508  76.6141  6.42583355 93867
UMKA 1 (RS40S)          
1 57172U 23091G   26196.18588508  .00003325  00000+0  15229-3 0  9998
2 57172  97.5037 254.7785 0013073  29.5815 330.6157 15.21121236168269
CUBESX-HSE 3 (RS42S)    
1 57178U 23091N   26196.20242786  .00007508  00000+0  24616-3 0  9999
2 57178  97.5080 262.1547 0009658   2.0774 358.0506 15.31884495168712
MONITOR-3 (RS58S)       
1 57180U 23091Q   26196.15905039  .00005620  00000+0  20587-3 0  9999
2 57180  97.5071 259.8183 0010995   9.8309 350.3143 15.28372348168569
MONITOR-4 (RS57S)       
1 57182U 23091S   26196.20201640  .00005714  00000+0  20874-3 0  9997
2 57182  97.5065 259.8343 0010986  10.1747 349.9713 15.28459258168577
MONITOR-2 (RS39S)       
1 57184U 23091U   26196.17696963  .00002750  00000+0  13394-3 0  9997
2 57184  97.5058 254.2808 0011419  24.1647 336.0120 15.19154294168203
SVYATOBOR 1 (RS60S)     
1 57187U 23091X   26196.17443780  .00004792  00000+0  18320-3 0  9999
2 57187  97.5077 260.1525 0008748   4.5992 355.5326 15.27062703168582
VIZARD-METEO (RS38S)    
1 57189U 23091Z   26196.15198793  .00010008  00000+0  27978-3 0  9996
2 57189  97.5082 266.2126 0005669 339.9492  20.1529 15.36873942168982
POLYTECH-UNIVERSE 3 (R*)
1 57191U 23091AB  26196.20035446  .00002579  00000+0  12490-3 0  9997
2 57191  97.5034 253.8082 0016081  37.6723 322.5634 15.19366644168202
UTMN 2 (RS27S)          
1 57203U 23091AP  26196.13963374  .00007465  00000+0  23879-3 0  9995
2 57203  97.5077 263.7588 0006745 350.5086   9.6027 15.32701040168824
