OBJECT_NAME,OBJECT_ID,EPOCH,MEAN_MOTION,ECCENTRICITY,INCLINATION,RA_OF_ASC_NODE,ARG_OF_PERICENTER,MEAN_ANOMALY,EPHEMERIS_TYPE,CLASSIFICATION_TYPE,NORAD_CAT_ID,ELEMENT_SET_NO,REV_AT_EPOCH,BSTAR,MEAN_MOTION_DOT,MEAN_MOTION_DDOT
CUBEBUG-2 (LO-74),2013-066AA,2026-07-14T20:38:50.433216,14.93965331,.00557382,97.8912,144.9614,296.4824,63.0685,0,U,39440,999,68112,.18583929E-3,.1977E-4,0
FUNCUBE-1 (AO-73),2013-066AE,2026-07-14T23:04:14.519424,15.09815956,.0038012,97.8287,167.9955,108.4306,252.1060,0,U,39444,999,68385,.21388E-3,.3446E-4,0
UWE-3,2013-066AG,2026-07-14T19:39:20.661696,14.97197060,.00474932,97.8706,152.0848,225.7627,133.9691,0,U,39446,999,68171,.16664043E-3,.1907E-4,0
UNISAT-6,2014-033C,2026-07-14T23:12:34.513632,14.88365994,.00442,97.7908,348.1967,338.5337,21.4025,0,U,40012,999,65029,.12477E-3,.1119E-4,0
DUCHIFAT-1,2014-033M,2026-07-15T02:33:22.917600,15.70998070,.000276,98.0418,259.3300,247.0602,113.0368,0,U,40021,999,66012,.75655E-3,.95423E-3,0
QB50P1,2014-033R,2026-07-15T00:35:22.225056,15.18664864,.0010342,98.0961,209.1307,125.0782,235.1421,0,U,40025,999,65725,.20589E-3,.4194E-4,0
LILACSAT-2,2015-049K,2026-07-15T04:35:58.250688,15.52359683,.0008423,97.4623,234.1104,141.4645,218.7210,0,U,40908,999,60009,.19341E-3,.11703E-3,0
FOX-1A (AO-85),2015-058D,2026-07-15T02:53:18.945024,14.91088023,.0132354,64.7725,192.1668,45.8405,315.3496,0,U,40967,999,11773,.15548E-3,.1645E-4,0
CAS-2T & KS-1Q,2016-066G,2026-07-15T03:37:42.000384,14.44770276,.0342241,98.3814,271.5674,44.8948,317.9386,0,U,41847,999,50883,.82619E-4,.53E-5,0
RADFXSAT (FOX-1B),2017-073E,2026-07-15T02:51:26.227584,15.13059975,.0148264,97.4665,62.7648,231.7533,127.0280,0,U,43017,999,46961,.1911E-3,.4352E-4,0
DIWATA-2B,2018-084H,2026-07-15T04:15:46.386144,15.00563346,.0012835,98.1212,33.6116,84.3828,275.8858,0,U,43678,999,42041,.98333E-4,.1177E-4,0
ES'HAIL 2,2018-090A,2026-07-15T03:13:38.603712,1.00270847,.0002198,0.0176,41.8438,117.2896,208.0388,0,U,43700,999,2795,0,.135E-5,0
FOX-1CLIFF (AO-95),2018-099N,2026-07-15T02:59:13.154784,15.27272459,.0007249,97.4371,256.2762,240.1261,119.9258,0,U,43770,999,41748,.24321E-3,.6428E-4,0
ITASAT,2018-099AE,2026-07-15T03:30:16.767360,15.19381680,.0010869,97.4013,247.1033,250.6070,109.3990,0,U,43786,999,41715,.17427E-3,.3624E-4,0
JY1SAT (JO-97),2018-099AX,2026-07-15T03:26:29.419584,15.34518700,.0006912,97.4123,259.0882,158.3405,201.8132,0,U,43803,999,41791,.29989E-3,.9957E-4,0
UWE-4,2018-111E,2026-07-14T18:29:30.308352,15.47799907,.00060919,97.5848,125.4664,196.0954,164.0103,0,U,43880,999,41504,.4060488E-3,.21018E-3,0
TIANYAN 01,2019-093C,2026-07-15T04:20:36.989088,14.86561337,.0013585,97.7529,267.7293,1.8085,358.3178,0,U,44881,999,35557,.36763E-4,.273E-5,0
RS-44 & BREEZE-KM R/B,2019-096E,2026-07-14T20:05:59.204256,12.79748927,.02185355,82.5241,321.3319,79.8236,282.7434,0,U,44909,999,30588,-.5524116E-4,-.1E-7,0
SALSAT,2020-068K,2026-07-15T00:09:24.300864,15.30170520,.0009152,97.8854,200.7735,193.6321,166.4672,0,U,46495,999,31961,.14518E-3,.4157E-4,0
XW-3 (CAS-9),2021-131B,2026-07-15T05:43:30.286272,14.41381778,.0004563,98.4995,288.4767,30.3901,329.7552,0,U,50466,999,23915,.91226E-4,.251E-5,0
GREENCUBE (IO-117),2022-080E,2026-07-15T04:46:20.870688,6.42583355,.0009069,70.1411,288.5050,283.3508,76.6141,0,U,53109,999,9386,0,-.3E-7,0
UMKA 1 (RS40S),2023-091G,2026-07-15T04:27:40.470912,15.21121236,.0013073,97.5037,254.7785,29.5815,330.6157,0,U,57172,999,16826,.15229E-3,.3325E-4,0
CUBESX-HSE 3 (RS42S),2023-091N,2026-07-15T04:51:29.767104,15.31884495,.0009658,97.5080,262.1547,2.0774,358.0506,0,U,57178,999,16871,.24616E-3,.7508E-4,0
MONITOR-3 (RS58S),2023-091Q,2026-07-15T03:49:01.953696,15.28372348,.0010995,97.5071,259.8183,9.8309,350.3143,0,U,57180,999,16856,.20587E-3,.562E-4,0
MONITOR-4 (RS57S),2023-091S,2026-07-15T04:50:54.216960,15.28459258,.0010986,97.5065,259.8343,10.1747,349.9713,0,U,57182,999,16857,.20874E-3,.5714E-4,0
MONITOR-2 (RS39S),2023-091U,2026-07-15T04:14:50.176032,15.19154294,.0011419,97.5058,254.2808,24.1647,336.0120,0,U,57184,999,16820,.13394E-3,.275E-4,0
SVYATOBOR 1 (RS60S),2023-091X,2026-07-15T04:11:11.425920,15.27062703,.0008748,97.5077,260.1525,4.5992,355.5326,0,U,57187,999,16858,.1832E-3,.4792E-4,0
VIZARD-METEO (RS38S),2023-091Z,2026-07-15T03:38:51.757152,15.36873942,.0005669,97.5082,266.2126,339.9492,20.1529,0,U,57189,999,16898,.27978E-3,.10008E-3,0
POLYTECH-UNIVERSE 3 (RS46S),2023-091AB,2026-07-15T04:48:30.625344,15.19366644,.0016081,97.5034,253.8082,37.6723,322.5634,0,U,57191,999,16820,.1249E-3,.2579E-4,0
UTMN 2 (RS27S),2023-091AP,2026-07-15T03:21:04.355136,15.32701040,.0006745,97.5077,263.7588,350.5086,9.6027,0,U,57203,999,16882,.23879E-3,.7465E-4,0
